GPS BIIA-10 (PRN 32)    
1 20959U 90103A   15365.27014640  .00000065  00000-0  00000+0 0  9992
2 20959  54.2504 186.2608 0113224  10.5524 349.6984  2.00567620183797
GPS BIIR-2  (PRN 13)    
1 24876U 97035A   15365.08570281 -.00000013  00000-0  00000+0 0  9996
2 24876  55.7179 248.1647 0044533 115.8154 244.7193  2.00562329135119
GPS BIIR-3  (PRN 11)    
1 25933U 99055A   15365.33433300 -.00000034  00000-0  00000+0 0  9996
2 25933  51.2908 101.0887 0160368  85.4561  18.0023  2.00566051118938
GPS BIIR-4  (PRN 20)    
1 26360U 00025A   15365.56347466  .00000067  00000-0  00000+0 0  9997
2 26360  53.0710 177.1444 0047917  74.0855 299.0916  2.00562326114637
GPS BIIR-5  (PRN 28)    
1 26407U 00040A   15365.40167322 -.00000073  00000-0  00000+0 0  9998
2 26407  56.6954   5.9465 0202334 266.3751 266.4435  2.00560966113301
GPS BIIR-6  (PRN 14)    
1 26605U 00071A   15365.46998409 -.00000010  00000-0  00000+0 0  9997
2 26605  55.2872 246.0825 0085233 249.0005 268.7779  2.00559949110908
GPS BIIR-7  (PRN 18)    
1 26690U 01004A   15365.58723939  .00000067  00000-0  00000+0 0  9996
2 26690  53.0000 180.1243 0166626 250.1264  86.0470  2.00565474109311
GPS BIIR-8  (PRN 16)    
1 27663U 03005A   15365.24636758 -.00000073  00000-0  00000+0 0  9993
2 27663  56.7717   5.6592 0082783  16.3659 169.1633  2.00563308 94665
GPS BIIR-9  (PRN 21)    
1 27704U 03010A   15365.43014013  .00000002  00000-0  00000+0 0  9991
2 27704  53.5917 120.4032 0231085 254.3048  23.8558  2.00560473 93470
GPS BIIR-10 (PRN 22)    
1 28129U 03058A   15365.18613508  .00000062  00000-0  00000+0 0  9997
2 28129  52.8764 180.1868 0077088 244.4685 114.7379  2.00395458 88173
GPS BIIR-11 (PRN 19)    
1 28190U 04009A   15365.22321231 -.00000069  00000-0  00000+0 0  9994
2 28190  55.6852  67.1150 0111331  37.3225 313.4415  2.00387534 86349
GPS BIIR-12 (PRN 23)    
1 28361U 04023A   15365.55529016 -.00000003  00000-0  00000+0 0  9995
2 28361  54.2531 241.7371 0105077 211.0470 261.4254  2.00554356 84435
GPS BIIR-13 (PRN 02)    
1 28474U 04045A   15365.29913353  .00000001  00000-0  00000+0 0  9993
2 28474  53.9843 119.6610 0153806 234.8718  55.4508  2.00560856 81793
GPS BIIRM-1 (PRN 17)    
1 28874U 05038A   15365.22856447 -.00000071  00000-0  00000+0 0  9991
2 28874  55.8531  64.3021 0110726 247.3915  98.2326  2.00570656 75195
GPS BIIRM-2 (PRN 31)    
1 29486U 06042A   15365.57997414 -.00000068  00000-0  00000+0 0  9991
2 29486  55.7436 303.5958 0084438 331.8789 189.7644  2.00564727 67915
GPS BIIRM-3 (PRN 12)    
1 29601U 06052A   15365.29852244 -.00000073  00000-0  00000+0 0  9997
2 29601  56.7418   4.5832 0055297  34.5762 325.8043  2.00578372 66829
GPS BIIRM-4 (PRN 15)    
1 32260U 07047A   15365.12223162 -.00000001  00000-0  00000+0 0  9991
2 32260  53.3832 238.5730 0078520  24.8904 335.5625  2.00551306 60205
GPS BIIRM-5 (PRN 29)    
1 32384U 07062A   15364.65717671 -.00000068  00000-0  00000+0 0  9998
2 32384  55.9052  64.8730 0010962 315.6843 203.9592  2.00568041 58924
GPS BIIRM-6 (PRN 07)    
1 32711U 08012A   15365.53041158 -.00000068  00000-0  00000+0 0  9996
2 32711  55.4657 303.0995 0091251 207.8808 151.6439  2.00562754 57134
GPS BIIRM-8 (PRN 05)    
1 35752U 09043A   15365.52578769  .00000069  00000-0  00000+0 0  9991
2 35752  54.2251 181.1511 0044792  25.2644   1.2098  2.00559591 46714
GPS BIIF-1  (PRN 25)    
1 36585U 10022A   15365.59154880 -.00000072  00000-0  00000+0 0  9991
2 36585  56.0740   1.7551 0047441  37.6215 141.9260  2.00575181 40954
GPS BIIF-2  (PRN 01)    
1 37753U 11036A   15365.33469164  .00000008  00000-0  00000+0 0  9999
2 37753  55.2041 122.0835 0048211  25.5176  53.0275  2.00565628 32637
GPS BIIF-3  (PRN 24)    
1 38833U 12053A   15365.21501260 -.00000068  00000-0  00000+0 0  9997
2 38833  54.4987 300.5564 0039498  15.3812 344.7553  2.00567317 23715
GPS BIIF-4  (PRN 27)    
1 39166U 13023A   15365.57265185 -.00000073  00000-0  00000+0 0  9993
2 39166  55.5631  61.4782 0028851   8.8259 351.2780  2.00559287 19246
GPS BIIF-5  (PRN 30)    
1 39533U 14008A   15365.07265433 -.00000069  00000-0  00000+0 0  9991
2 39533  54.6516 305.7681 0016518 185.8160 174.1770  2.00565697 13609
GPS BIIF-6  (PRN 06)    
1 39741U 14026A   15365.34960665  .00000007  00000-0  00000+0 0  9992
2 39741  55.1957 121.5983 0003822 237.1111 122.8353  2.00571085 11888
GPS BIIF-7  (PRN 09)    
1 40105U 14045A   15364.94464092 -.00000004  00000-0  00000+0 0  9995
2 40105  54.7708 241.3834 0003369 123.2796 236.8294  2.00564373 10329
GPS BIIF-8  (PRN 03)    
1 40294U 14068A   15365.30741255  .00000068  00000-0  00000+0 0  9998
2 40294  54.9625 181.7282 0003570 204.6929 155.2989  2.00549063  8554
GPS BIIF-9  (PRN 26)    
1 40534U 15013A   15364.45237039 -.00000081  00000-0  00000+0 0  9997
2 40534  55.0447   1.4356 0007191 325.9341  34.0368  2.00562295  5603
GPS BIIF-10  (PRN 08)   
1 40730U 15033A   15365.11128864 -.00000073  00000-0  00000+0 0  9997
2 40730  55.0996  61.4096 0019174 272.0741  87.7592  2.00569260  3372
GPS BIIF-11  (PRN 10)   
1 41019U 15062A   15365.16306437  .00000066  00000-0  00000+0 0  9990
2 41019  54.9774 181.4968 0010086 203.3597 156.6030  2.00562031  1195
